[{"OBJECT_NAME":"ORBITER SN3","OBJECT_ID":"2023-084AE","EPOCH":"2026-03-09T23:12:21.976128","MEAN_MOTION":15.32943891,"ECCENTRICITY":0.00075889,"INCLINATION":97.61,"RA_OF_ASC_NODE":206.6768,"ARG_OF_PERICENTER":331.7947,"MEAN_ANOMALY":28.2883,"EPHEMERIS_TYPE":0,"CLASSIFICATION_TYPE":"U","NORAD_CAT_ID":56960,"ELEMENT_SET_NO":999,"REV_AT_EPOCH":15228,"BSTAR":0.00032835432,"MEAN_MOTION_DOT":0.00010378,"MEAN_MOTION_DDOT":0},{"OBJECT_NAME":"STARLINK-35895","OBJECT_ID":"2025-254G","EPOCH":"2026-03-09T18:26:56.822208","MEAN_MOTION":15.30192194,"ECCENTRICITY":0.00012015,"INCLINATION":53.1594,"RA_OF_ASC_NODE":232.3907,"ARG_OF_PERICENTER":75.9141,"MEAN_ANOMALY":284.1993,"EPHEMERIS_TYPE":0,"CLASSIFICATION_TYPE":"U","NORAD_CAT_ID":66354,"ELEMENT_SET_NO":999,"REV_AT_EPOCH":1898,"BSTAR":0.00091523717,"MEAN_MOTION_DOT":0.00026839,"MEAN_MOTION_DDOT":0}]
